{"0":{"name":"Local Institution","status":"Withdrawn","city":"Little Rock","zip":"72205"},"1":{"name":"Local Institution","status":"Not yet recruiting","city":"Fresno","zip":"93701"},"2":{"name":"Local Institution","status":"Withdrawn","city":"Long Beach","zip":"90813"},"3":{"name":"Division Of Hematology & Oncology Ctr. For Health Sciences","status":"Active, not recruiting","city":"Los Angeles","zip":"90095"},"4":{"name":"University of Colorado Denver","status":"Recruiting","city":"Aurora","zip":"80045"},"5":{"name":"Yale University School Of Medicine","status":"Completed","city":"New Haven","zip":"06520"},"6":{"name":"Local Institution","status":"Withdrawn","city":"Gainesville","zip":"32608"},"7":{"name":"Local Institution","status":"Withdrawn","city":"Miami","zip":"33136"},"8":{"name":"Cancer Institute Of Florida","status":"Recruiting","city":"Orlando","zip":"32804"},"9":{"name":"Local Institution","status":"Withdrawn","city":"Tampa","zip":"33612-9497"},"10":{"name":"Local Institution","status":"Withdrawn","city":"Atlanta","zip":"30322"},"11":{"name":"Local Institution","status":"Not yet recruiting","city":"Skokie","zip":"60077"},"12":{"name":"Indiana University Melvin & Bren Simon Cancer Center","status":"Recruiting","city":"Indianapolis","zip":"46202"},"13":{"name":"Local Institution","status":"Withdrawn","city":"Lafayette","zip":"47905"},"14":{"name":"University Of Kansas Medical Center","status":"Recruiting","city":"Kansas City","zip":"66205"},"15":{"name":"The Sidney Kimmel Comprehensive Cancer Center","status":"Recruiting","city":"Baltimore","zip":"21231"},"16":{"name":"Dana Farber Cancer Institute","status":"Recruiting","city":"Boston","zip":"02215"},"17":{"name":"Dana-Farber Cancer Institute","status":"Recruiting","city":"Boston","zip":"02215"},"18":{"name":"University Of Michigan Health System","status":"Active, not recruiting","city":"Ann Arbor","zip":"48109"},"19":{"name":"Mayo Clinic","status":"Recruiting","city":"Rochester","zip":"55905"},"20":{"name":"Local Institution","status":"Withdrawn","city":"Saint Louis","zip":"63110"},"21":{"name":"Nebraska Cancer Specialists","status":"Recruiting","city":"Omaha","zip":"68130"},"22":{"name":"John Theurer Cancer Center","status":"Active, not recruiting","city":"Hackensack","zip":"07601"},"23":{"name":"Memorial Sloan Kettering Cancer Center","status":"Recruiting","city":"New York","zip":"10065"},"24":{"name":"Local Institution","status":"Withdrawn","city":"Cleveland","zip":"44195"},"25":{"name":"Ohio State University","status":"Recruiting","city":"Columbus","zip":"43210"},"26":{"name":"Local Institution","status":"Withdrawn","city":"Oklahoma City","zip":"73142"},"27":{"name":"OHSU Center for Hematologic Malignancies","status":"Recruiting","city":"Portland","zip":"97239"},"28":{"name":"Abramson Cancer Center","status":"Completed","city":"Philadelphia","zip":"19104"},"29":{"name":"Fox Chase Cancer Center","status":"Active, not recruiting","city":"Philadelphia","zip":"19111"},"30":{"name":"Local Institution","status":"Not yet recruiting","city":"Pittsburgh","zip":"15232"},"31":{"name":"Local Institution","status":"Not yet recruiting","city":"Knoxville","zip":"37920"},"32":{"name":"Local Institution","status":"Withdrawn","city":"Murray","zip":"84107"},"33":{"name":"Local Institution","status":"Not yet recruiting","city":"Saint George","zip":"84770"},"34":{"name":"Huntsman Cancer Institute At The Univ. Of Utah","status":"Recruiting","city":"Salt Lake City","zip":"84112"},"35":{"name":"Local Institution","status":"Withdrawn","city":"Salt Lake City","zip":"84143-0001"},"36":{"name":"Local Institution","status":"Withdrawn","city":"Milwaukee","zip":"53226"},"37":{"name":"Local Institution","status":"Not yet recruiting","city":"Impact Migration","zip":"9000"},"38":{"name":"Local Institution","status":"Not yet recruiting","city":"Sint-Niklaas","zip":"9100"},"39":{"name":"Local Institution","status":"Not yet recruiting","city":"Yvoir","zip":"5530"},"40":{"name":"Local Institution","status":"Not yet recruiting","city":"Nantes","zip":"44093"},"41":{"name":"Local Institution","status":"Recruiting","city":"Poitiers","zip":"86021"},"42":{"name":"Local Institution","status":"Not yet recruiting","city":"Athens","zip":"11528"},"43":{"name":"Local Institution","status":"Not yet recruiting","city":"Chorzow","zip":"41-500"},"44":{"name":"Local Institution","status":"Not yet recruiting","city":"Poznan","zip":"60-569"},"45":{"name":"Local Institution","status":"Not yet recruiting","city":"Warszawa","zip":"02-776"},"46":{"name":"Local Institution","status":"Not yet recruiting","city":"Wroclaw","zip":"50-367"}}